start=new Date('2023-03-20T00:00:00.000Z').valueOf();
sats=[{"MEAN_MOTION_DDOT":"0.0000000000000","BSTAR":"0.00184140000000","TLE_LINE1":"1 46765U 20074AC  23078.61437489  .00027320  00000-0  18414-2 0  9997","PERIAPSIS":"545.842","CENTER_NAME":"EARTH","INCLINATION":"53.0551","RA_OF_ASC_NODE":"172.2002","MEAN_MOTION":"15.06490936","TLE_LINE2":"2 46765  53.0551 172.2002 0001578  93.2729 266.8441 15.06490936132769","OBJECT_TYPE":"PAYLOAD","ELEMENT_SET_NO":"999","APOAPSIS":"548.028","FILE":"3865354","ARG_OF_PERICENTER":"93.2729","DECAY_DATE":null,"EPOCH":"2023-03-19T14:44:41.990496","LAUNCH_DATE":"2020-10-24","MEAN_ELEMENT_THEORY":"SGP4","RCS_SIZE":"LARGE","CLASSIFICATION_TYPE":"U","PERIOD":"95.586","EPHEMERIS_TYPE":"0","SEMIMAJOR_AXIS":"6925.070","OBJECT_NAME":"STARLINK-1906","MEAN_MOTION_DOT":"0.00027320","NORAD_CAT_ID":"46765","ECCENTRICITY":"0.00015780","SITE":"AFETR","COUNTRY_CODE":"US","MEAN_ANOMALY":"266.8441","OBJECT_ID":"2020-074AC","TIME_SYSTEM":"UTC","REF_FRAME":"TEME","GP_ID":"228473973","REV_AT_EPOCH":"13276"},{"PERIAPSIS":"545.934","CENTER_NAME":"EARTH","INCLINATION":"53.0535","RA_OF_ASC_NODE":"172.8265","MEAN_MOTION_DDOT":"0.0000000000000","BSTAR":"0.00336380000000","TLE_LINE1":"1 46766U 20074AD  23078.47432338  .00050322  00000-0  33638-2 0  9993","TLE_LINE2":"2 46766  53.0535 172.8265 0001391  90.4578 269.6571 15.06503307132754","OBJECT_TYPE":"PAYLOAD","MEAN_MOTION":"15.06503307","APOAPSIS":"547.860","FILE":"3865049","ELEMENT_SET_NO":"999","LAUNCH_DATE":"2020-10-24","MEAN_ELEMENT_THEORY":"SGP4","DECAY_DATE":null,"ARG_OF_PERICENTER":"90.4578","EPOCH":"2023-03-19T11:23:01.540032","SEMIMAJOR_AXIS":"6925.032","OBJECT_NAME":"STARLINK-1916","MEAN_MOTION_DOT":"0.00050322","NORAD_CAT_ID":"46766","RCS_SIZE":"LARGE","CLASSIFICATION_TYPE":"U","PERIOD":"95.586","EPHEMERIS_TYPE":"0","SITE":"AFETR","COUNTRY_CODE":"US","ECCENTRICITY":"0.00013910","REF_FRAME":"TEME","GP_ID":"228440045","REV_AT_EPOCH":"13275","MEAN_ANOMALY":"269.6571","OBJECT_ID":"2020-074AD","TIME_SYSTEM":"UTC"},{"INCLINATION":"53.0544","CENTER_NAME":"EARTH","PERIAPSIS":"546.380","RA_OF_ASC_NODE":"171.4999","BSTAR":"0.00143000000000","MEAN_MOTION_DDOT":"0.0000000000000","TLE_LINE1":"1 46767U 20074AE  23078.76919350  .00021113  00000-0  14300-2 0  9991","TLE_LINE2":"2 46767  53.0544 171.4999 0000969  79.5902 280.5196 15.06452900132794","OBJECT_TYPE":"PAYLOAD","MEAN_MOTION":"15.06452900","APOAPSIS":"547.722","FILE":"3865354","ELEMENT_SET_NO":"999","MEAN_ELEMENT_THEORY":"SGP4","LAUNCH_DATE":"2020-10-24","EPOCH":"2023-03-19T18:27:38.318400","DECAY_DATE":null,"ARG_OF_PERICENTER":"79.5902","SEMIMAJOR_AXIS":"6925.186","NORAD_CAT_ID":"46767","OBJECT_NAME":"STARLINK-1917","MEAN_MOTION_DOT":"0.00021113","CLASSIFICATION_TYPE":"U","RCS_SIZE":"LARGE","EPHEMERIS_TYPE":"0","PERIOD":"95.589","COUNTRY_CODE":"US","SITE":"AFETR","ECCENTRICITY":"0.00009690","REF_FRAME":"TEME","GP_ID":"228473473","REV_AT_EPOCH":"13279","OBJECT_ID":"2020-074AE","MEAN_ANOMALY":"280.5196","TIME_SYSTEM":"UTC"},{"APOAPSIS":"547.992","FILE":"3865354","ELEMENT_SET_NO":"999","MEAN_ELEMENT_THEORY":"SGP4","LAUNCH_DATE":"2020-10-24","ARG_OF_PERICENTER":"99.8592","DECAY_DATE":null,"EPOCH":"2023-03-19T16:57:24.431328","CENTER_NAME":"EARTH","PERIAPSIS":"546.128","INCLINATION":"53.0540","RA_OF_ASC_NODE":"171.7876","BSTAR":"0.00109620000000","MEAN_MOTION_DDOT":"0.0000000000000","TLE_LINE1":"1 46768U 20074AF  23078.70653277  .00016106  00000-0  10962-2 0  9995","TLE_LINE2":"2 46768  53.0540 171.7876 0001346  99.8592 260.2549 15.06450026132781","OBJECT_TYPE":"PAYLOAD","MEAN_MOTION":"15.06450026","REF_FRAME":"TEME","GP_ID":"228473723","REV_AT_EPOCH":"13278","MEAN_ANOMALY":"260.2549","OBJECT_ID":"2020-074AF","TIME_SYSTEM":"UTC","SEMIMAJOR_AXIS":"6925.195","OBJECT_NAME":"STARLINK-1918","MEAN_MOTION_DOT":"0.00016106","NORAD_CAT_ID":"46768","RCS_SIZE":"LARGE","CLASSIFICATION_TYPE":"U","PERIOD":"95.589","EPHEMERIS_TYPE":"0","SITE":"AFETR","COUNTRY_CODE":"US","ECCENTRICITY":"0.00013460"},{"RA_OF_ASC_NODE":"172.8996","INCLINATION":"53.0523","CENTER_NAME":"EARTH","PERIAPSIS":"546.367","TLE_LINE1":"1 46770U 20074AH  23078.58127338  .00024271  00000-0  16402-2 0  9995","BSTAR":"0.00164020000000","MEAN_MOTION_DDOT":"0.0000000000000","OBJECT_TYPE":"PAYLOAD","TLE_LINE2":"2 46770  53.0523 172.8996 0000973  91.5559 268.5542 15.06456207132755","MEAN_MOTION":"15.06456207","FILE":"3865049","APOAPSIS":"547.715","ELEMENT_SET_NO":"999","MEAN_ELEMENT_THEORY":"SGP4","LAUNCH_DATE":"2020-10-24","EPOCH":"2023-03-19T13:57:02.020032","DECAY_DATE":null,"ARG_OF_PERICENTER":"91.5559","OBJECT_NAME":"STARLINK-1932","NORAD_CAT_ID":"46770","MEAN_MOTION_DOT":"0.00024271","SEMIMAJOR_AXIS":"6925.176","EPHEMERIS_TYPE":"0","PERIOD":"95.589","CLASSIFICATION_TYPE":"U","RCS_SIZE":"LARGE","COUNTRY_CODE":"US","SITE":"AFETR","ECCENTRICITY":"0.00009730","GP_ID":"228441284","REV_AT_EPOCH":"13275","REF_FRAME":"TEME","TIME_SYSTEM":"UTC","OBJECT_ID":"2020-074AH","MEAN_ANOMALY":"268.5542"},{"SITE":"AFETR","COUNTRY_CODE":"US","ECCENTRICITY":"0.00011760","NORAD_CAT_ID":"46772","OBJECT_NAME":"STARLINK-1936","MEAN_MOTION_DOT":"0.00026154","SEMIMAJOR_AXIS":"6925.085","PERIOD":"95.587","EPHEMERIS_TYPE":"0","RCS_SIZE":"LARGE","CLASSIFICATION_TYPE":"U","REV_AT_EPOCH":"13277","GP_ID":"228474222","REF_FRAME":"TEME","TIME_SYSTEM":"UTC","MEAN_ANOMALY":"271.1209","OBJECT_ID":"2020-074AK","TLE_LINE2":"2 46772  53.0525 172.0461 0001176  88.9915 271.1209 15.06485914132779","OBJECT_TYPE":"PAYLOAD","MEAN_MOTION":"15.06485914","RA_OF_ASC_NODE":"172.0461","CENTER_NAME":"EARTH","PERIAPSIS":"546.136","INCLINATION":"53.0525","TLE_LINE1":"1 46772U 20074AK  23078.64660395  .00026154  00000-0  17641-2 0  9997","MEAN_MOTION_DDOT":"0.0000000000000","BSTAR":"0.00176410000000","MEAN_ELEMENT_THEORY":"SGP4","LAUNCH_DATE":"2020-10-24","ARG_OF_PERICENTER":"88.9915","DECAY_DATE":null,"EPOCH":"2023-03-19T15:31:06.581280","FILE":"3865354","APOAPSIS":"547.765","ELEMENT_SET_NO":"999"},{"MEAN_MOTION_DDOT":"0.0000000000000","BSTAR":"0.00427420000000","TLE_LINE1":"1 46774U 20074AM  23078.54778931  .00308978  00000-0  42742-2 0  9991","CENTER_NAME":"EARTH","PERIAPSIS":"393.639","INCLINATION":"53.0434","RA_OF_ASC_NODE":"127.6805","MEAN_MOTION":"15.55498121","TLE_LINE2":"2 46774  53.0434 127.6805 0010426  14.6927 345.4385 15.55498121133404","OBJECT_TYPE":"PAYLOAD","ELEMENT_SET_NO":"999","APOAPSIS":"407.775","FILE":"3865049","ARG_OF_PERICENTER":"14.6927","DECAY_DATE":null,"EPOCH":"2023-03-19T13:08:48.996384","MEAN_ELEMENT_THEORY":"SGP4","LAUNCH_DATE":"2020-10-24","RCS_SIZE":"LARGE","CLASSIFICATION_TYPE":"U","PERIOD":"92.575","EPHEMERIS_TYPE":"0","SEMIMAJOR_AXIS":"6778.842","MEAN_MOTION_DOT":"0.00308978","NORAD_CAT_ID":"46774","OBJECT_NAME":"STARLINK-1939","ECCENTRICITY":"0.00104260","SITE":"AFETR","COUNTRY_CODE":"US","MEAN_ANOMALY":"345.4385","OBJECT_ID":"2020-074AM","TIME_SYSTEM":"UTC","REF_FRAME":"TEME","GP_ID":"228439796","REV_AT_EPOCH":"13340"},{"RA_OF_ASC_NODE":"146.0211","PERIAPSIS":"545.098","CENTER_NAME":"EARTH","INCLINATION":"53.0523","TLE_LINE1":"1 46779U 20074AS  23078.87655474 -.00012656  00000-0 -83163-3 0  9998","BSTAR":"-0.00083163000000","MEAN_MOTION_DDOT":"0.0000000000000","OBJECT_TYPE":"PAYLOAD","TLE_LINE2":"2 46779  53.0523 146.0211 0002956  91.7201 268.4126 15.06422288133150","MEAN_MOTION":"15.06422288","FILE":"3865354","APOAPSIS":"549.192","ELEMENT_SET_NO":"999","LAUNCH_DATE":"2020-10-24","MEAN_ELEMENT_THEORY":"SGP4","DECAY_DATE":null,"ARG_OF_PERICENTER":"91.7201","EPOCH":"2023-03-19T21:02:14.329536","NORAD_CAT_ID":"46779","OBJECT_NAME":"STARLINK-1798","MEAN_MOTION_DOT":"-0.00012656","SEMIMAJOR_AXIS":"6925.280","PERIOD":"95.591","EPHEMERIS_TYPE":"0","RCS_SIZE":"LARGE","CLASSIFICATION_TYPE":"U","SITE":"AFETR","COUNTRY_CODE":"US","ECCENTRICITY":"0.00029560","REV_AT_EPOCH":"13315","GP_ID":"228473224","REF_FRAME":"TEME","TIME_SYSTEM":"UTC","MEAN_ANOMALY":"268.4126","OBJECT_ID":"2020-074AS"},{"APOAPSIS":"548.109","FILE":"3865049","ELEMENT_SET_NO":"999","LAUNCH_DATE":"2020-10-24","MEAN_ELEMENT_THEORY":"SGP4","ARG_OF_PERICENTER":"88.2014","DECAY_DATE":null,"EPOCH":"2023-03-19T11:13:03.863712","PERIAPSIS":"545.804","CENTER_NAME":"EARTH","INCLINATION":"53.0525","RA_OF_ASC_NODE":"147.8601","BSTAR":"0.00170360000000","MEAN_MOTION_DDOT":"0.0000000000000","TLE_LINE1":"1 46780U 20074AT  23078.46740583  .00025243  00000-0  17036-2 0  9990","TLE_LINE2":"2 46780  53.0525 147.8601 0001664  88.2014 271.9166 15.06483955133098","OBJECT_TYPE":"PAYLOAD","MEAN_MOTION":"15.06483955","REF_FRAME":"TEME","REV_AT_EPOCH":"13309","GP_ID":"228440785","MEAN_ANOMALY":"271.9166","OBJECT_ID":"2020-074AT","TIME_SYSTEM":"UTC","SEMIMAJOR_AXIS":"6925.091","OBJECT_NAME":"STARLINK-1832","MEAN_MOTION_DOT":"0.00025243","NORAD_CAT_ID":"46780","RCS_SIZE":"LARGE","CLASSIFICATION_TYPE":"U","PERIOD":"95.587","EPHEMERIS_TYPE":"0","SITE":"AFETR","COUNTRY_CODE":"US","ECCENTRICITY":"0.00016640"},{"MEAN_MOTION":"15.06499320","TLE_LINE2":"2 46781  53.0524 157.1852 0001575  70.3740 289.7419 15.06499320132987","OBJECT_TYPE":"PAYLOAD","TLE_LINE1":"1 46781U 20074AU  23078.61760240  .00031208  00000-0  20991-2 0  9992","BSTAR":"0.00209910000000","MEAN_MOTION_DDOT":"0.0000000000000","RA_OF_ASC_NODE":"157.1852","PERIAPSIS":"545.818","CENTER_NAME":"EARTH","INCLINATION":"53.0524","ARG_OF_PERICENTER":"70.3740","DECAY_DATE":null,"EPOCH":"2023-03-19T14:49:20.847360","LAUNCH_DATE":"2020-10-24","MEAN_ELEMENT_THEORY":"SGP4","ELEMENT_SET_NO":"999","FILE":"3865354","APOAPSIS":"548.000","ECCENTRICITY":"0.00015750","SITE":"AFETR","COUNTRY_CODE":"US","PERIOD":"95.586","EPHEMERIS_TYPE":"0","RCS_SIZE":"LARGE","CLASSIFICATION_TYPE":"U","MEAN_MOTION_DOT":"0.00031208","NORAD_CAT_ID":"46781","OBJECT_NAME":"STARLINK-1834","SEMIMAJOR_AXIS":"6925.044","TIME_SYSTEM":"UTC","MEAN_ANOMALY":"289.7419","OBJECT_ID":"2020-074AU","GP_ID":"228474723","REV_AT_EPOCH":"13298","REF_FRAME":"TEME"}];
